[{"spaceTrack":{"CCSDS_OMM_VERS":"2.0","COMMENT":"GENERATED VIA SPACE-TRACK.ORG API","CREATION_DATE":"2021-07-02T17:51:43","ORIGINATOR":"18 SPCS","OBJECT_NAME":"STARLINK-2265","OBJECT_ID":"2021-024AB","CENTER_NAME":"EARTH","REF_FRAME":"TEME","TIME_SYSTEM":"UTC","MEAN_ELEMENT_THEORY":"SGP4","EPOCH":"2021-07-02T14:00:01.999872","MEAN_MOTION":15.73237506,"ECCENTRICITY":0.0001785,"INCLINATION":53.0475,"RA_OF_ASC_NODE":66.2668,"ARG_OF_PERICENTER":40.0271,"MEAN_ANOMALY":171.3963,"EPHEMERIS_TYPE":0,"CLASSIFICATION_TYPE":"U","NORAD_CAT_ID":48002,"ELEMENT_SET_NO":999,"REV_AT_EPOCH":369,"BSTAR":-0.00023847,"MEAN_MOTION_DOT":-0.00034016,"MEAN_MOTION_DDOT":0,"SEMIMAJOR_AXIS":6727.788,"PERIOD":91.531,"APOAPSIS":350.854,"PERIAPSIS":348.452,"OBJECT_TYPE":"PAYLOAD","RCS_SIZE":"LARGE","COUNTRY_CODE":"US","LAUNCH_DATE":"2021-03-24","SITE":"AFETR","DECAY_DATE":null,"DECAYED":0,"FILE":3068555,"GP_ID":180167679,"TLE_LINE0":"0 STARLINK-2265","TLE_LINE1":"1 48002U 21024AB  21183.58335648 -.00034016  00000-0 -23847-3 0  9993","TLE_LINE2":"2 48002  53.0475  66.2668 0001785  40.0271 171.3963 15.73237506  3696"},"version":"v1.0","launch":"60428aafc041c16716f73cd7","longitude":-123.17861010573482,"latitude":51.86728617446187,"height_km":354.99974977164675,"velocity_kms":7.703039415407906,"id":"6064dd07b8f62f0006577459"},{"spaceTrack":{"CCSDS_OMM_VERS":"2.0","COMMENT":"GENERATED VIA SPACE-TRACK.ORG API","CREATION_DATE":"2021-07-02T17:51:43","ORIGINATOR":"18 SPCS","OBJECT_NAME":"STARLINK-2277","OBJECT_ID":"2021-024AF","CENTER_NAME":"EARTH","REF_FRAME":"TEME","TIME_SYSTEM":"UTC","MEAN_ELEMENT_THEORY":"SGP4","EPOCH":"2021-07-02T14:00:01.999872","MEAN_MOTION":15.73213993,"ECCENTRICITY":0.0001809,"INCLINATION":53.047,"RA_OF_ASC_NODE":66.2629,"ARG_OF_PERICENTER":33.1626,"MEAN_ANOMALY":180.5987,"EPHEMERIS_TYPE":0,"CLASSIFICATION_TYPE":"U","NORAD_CAT_ID":48006,"ELEMENT_SET_NO":999,"REV_AT_EPOCH":369,"BSTAR":-0.000013469,"MEAN_MOTION_DOT":-0.00002513,"MEAN_MOTION_DDOT":0,"SEMIMAJOR_AXIS":6727.855,"PERIOD":91.532,"APOAPSIS":350.937,"PERIAPSIS":348.503,"OBJECT_TYPE":"PAYLOAD","RCS_SIZE":"LARGE","COUNTRY_CODE":"US","LAUNCH_DATE":"2021-03-24","SITE":"AFETR","DECAY_DATE":null,"DECAYED":0,"FILE":3068555,"GP_ID":180167180,"TLE_LINE0":"0 STARLINK-2277","TLE_LINE1":"1 48006U 21024AF  21183.58335648 -.00002513  00000-0 -13469-4 0  9994","TLE_LINE2":"2 48006  53.0470  66.2629 0001809  33.1626 180.5987 15.73213993  3698"},"version":"v1.0","launch":"60428aafc041c16716f73cd7","longitude":-119.4625102405656,"latitude":52.377248848127266,"height_km":355.23785708696414,"velocity_kms":7.702882390846776,"id":"6064dd07b8f62f0006577461"},{"spaceTrack":{"CCSDS_OMM_VERS":"2.0","COMMENT":"GENERATED VIA SPACE-TRACK.ORG API","CREATION_DATE":"2021-07-02T17:51:43","ORIGINATOR":"18 SPCS","OBJECT_NAME":"STARLINK-2087","OBJECT_ID":"2021-024A","CENTER_NAME":"EARTH","REF_FRAME":"TEME","TIME_SYSTEM":"UTC","MEAN_ELEMENT_THEORY":"SGP4","EPOCH":"2021-07-02T14:00:01.999872","MEAN_MOTION":15.06365217,"ECCENTRICITY":0.0001686,"INCLINATION":53.0536,"RA_OF_ASC_NODE":88.0602,"ARG_OF_PERICENTER":80.3872,"MEAN_ANOMALY":180.6584,"EPHEMERIS_TYPE":0,"CLASSIFICATION_TYPE":"U","NORAD_CAT_ID":47977,"ELEMENT_SET_NO":999,"REV_AT_EPOCH":361,"BSTAR":0.0025262,"MEAN_MOTION_DOT":0.00037512,"MEAN_MOTION_DDOT":0,"SEMIMAJOR_AXIS":6925.455,"PERIOD":95.594,"APOAPSIS":548.488,"PERIAPSIS":546.153,"OBJECT_TYPE":"PAYLOAD","RCS_SIZE":"LARGE","COUNTRY_CODE":"US","LAUNCH_DATE":"2021-03-24","SITE":"AFETR","DECAY_DATE":null,"DECAYED":0,"FILE":3068555,"GP_ID":180168428,"TLE_LINE0":"0 STARLINK-2087","TLE_LINE1":"1 47977U 21024A   21183.58335648  .00037512  00000-0  25262-2 0  9997","TLE_LINE2":"2 47977  53.0536  88.0602 0001686  80.3872 180.6584 15.06365217  3619"},"version":"v1.0","launch":"60428aafc041c16716f73cd7","longitude":-144.79557180225774,"latitude":32.74480820198067,"height_km":548.4916572023103,"velocity_kms":7.59249828159042,"id":"6064dd08b8f62f0006577466"},{"spaceTrack":{"CCSDS_OMM_VERS":"2.0","COMMENT":"GENERATED VIA SPACE-TRACK.ORG API","CREATION_DATE":"2021-07-02T17:51:43","ORIGINATOR":"18 SPCS","OBJECT_NAME":"STARLINK-2298","OBJECT_ID":"2021-024AX","CENTER_NAME":"EARTH","REF_FRAME":"TEME","TIME_SYSTEM":"UTC","MEAN_ELEMENT_THEORY":"SGP4","EPOCH":"2021-07-02T11:42:25.623648","MEAN_MOTION":15.06394917,"ECCENTRICITY":0.0001804,"INCLINATION":53.057,"RA_OF_ASC_NODE":93.4922,"ARG_OF_PERICENTER":75.0939,"MEAN_ANOMALY":285.025,"EPHEMERIS_TYPE":0,"CLASSIFICATION_TYPE":"U","NORAD_CAT_ID":48022,"ELEMENT_SET_NO":999,"REV_AT_EPOCH":1671,"BSTAR":-0.000035256,"MEAN_MOTION_DOT":-0.00000807,"MEAN_MOTION_DDOT":0,"SEMIMAJOR_AXIS":6925.364,"PERIOD":95.592,"APOAPSIS":548.478,"PERIAPSIS":545.98,"OBJECT_TYPE":"PAYLOAD","RCS_SIZE":"LARGE","COUNTRY_CODE":"US","LAUNCH_DATE":"2021-03-24","SITE":"AFETR","DECAY_DATE":null,"DECAYED":0,"FILE":3068555,"GP_ID":180167182,"TLE_LINE0":"0 STARLINK-2298","TLE_LINE1":"1 48022U 21024AX  21183.48779657 -.00000807  00000-0 -35256-4 0  9995","TLE_LINE2":"2 48022  53.0570  93.4922 0001804  75.0939 285.0250 15.06394917 16715"},"version":"v1.0","launch":"60428aafc041c16716f73cd7","longitude":145.41297724664275,"latitude":-43.902380508380475,"height_km":562.8907101767109,"velocity_kms":7.579158675704217,"id":"6064dd08b8f62f0006577465"},{"spaceTrack":{"CCSDS_OMM_VERS":"2.0","COMMENT":"GENERATED VIA SPACE-TRACK.ORG API","CREATION_DATE":"2021-07-02T17:51:43","ORIGINATOR":"18 SPCS","OBJECT_NAME":"STARLINK-2312","OBJECT_ID":"2021-024D","CENTER_NAME":"EARTH","REF_FRAME":"TEME","TIME_SYSTEM":"UTC","MEAN_ELEMENT_THEORY":"SGP4","EPOCH":"2021-07-02T14:00:01.999872","MEAN_MOTION":15.73108618,"ECCENTRICITY":0.0003871,"INCLINATION":53.0482,"RA_OF_ASC_NODE":66.3005,"ARG_OF_PERICENTER":1.6896,"MEAN_ANOMALY":195.8424,"EPHEMERIS_TYPE":0,"CLASSIFICATION_TYPE":"U","NORAD_CAT_ID":47980,"ELEMENT_SET_NO":999,"REV_AT_EPOCH":369,"BSTAR":0.00025791,"MEAN_MOTION_DOT":0.00035604,"MEAN_MOTION_DDOT":0,"SEMIMAJOR_AXIS":6728.156,"PERIOD":91.538,"APOAPSIS":352.625,"PERIAPSIS":347.416,"OBJECT_TYPE":"PAYLOAD","RCS_SIZE":"LARGE","COUNTRY_CODE":"US","LAUNCH_DATE":"2021-03-24","SITE":"AFETR","DECAY_DATE":null,"DECAYED":0,"FILE":3068555,"GP_ID":180168178,"TLE_LINE0":"0 STARLINK-2312","TLE_LINE1":"1 47980U 21024D   21183.58335648  .00035604  00000-0  25791-3 0  9999","TLE_LINE2":"2 47980  53.0482  66.3005 0003871   1.6896 195.8424 15.73108618  3692"},"version":"v1.0","launch":"60428aafc041c16716f73cd7","longitude":-143.22937901418035,"latitude":46.58832909393043,"height_km":353.7594685372442,"velocity_kms":7.703382749643577,"id":"6064dd08b8f62f0006577469"},{"spaceTrack":{"CCSDS_OMM_VERS":"2.0","COMMENT":"GENERATED VIA SPACE-TRACK.ORG API","CREATION_DATE":"2021-07-02T17:51:43","ORIGINATOR":"18 SPCS","OBJECT_NAME":"STARLINK-2261","OBJECT_ID":"2021-024AD","CENTER_NAME":"EARTH","REF_FRAME":"TEME","TIME_SYSTEM":"UTC","MEAN_ELEMENT_THEORY":"SGP4","EPOCH":"2021-07-02T14:00:01.999872","MEAN_MOTION":15.73122633,"ECCENTRICITY":0.0001878,"INCLINATION":53.0476,"RA_OF_ASC_NODE":66.2655,"ARG_OF_PERICENTER":33.6006,"MEAN_ANOMALY":179.1732,"EPHEMERIS_TYPE":0,"CLASSIFICATION_TYPE":"U","NORAD_CAT_ID":48004,"ELEMENT_SET_NO":999,"REV_AT_EPOCH":369,"BSTAR":0.00052536,"MEAN_MOTION_DOT":0.00073528,"MEAN_MOTION_DDOT":0,"SEMIMAJOR_AXIS":6728.116,"PERIOD":91.538,"APOAPSIS":351.244,"PERIAPSIS":348.717,"OBJECT_TYPE":"PAYLOAD","RCS_SIZE":"LARGE","COUNTRY_CODE":"US","LAUNCH_DATE":"2021-03-24","SITE":"AFETR","DECAY_DATE":null,"DECAYED":0,"FILE":3068555,"GP_ID":180168181,"TLE_LINE0":"0 STARLINK-2261","TLE_LINE1":"1 48004U 21024AD  21183.58335648  .00073528  00000-0  52536-3 0  9991","TLE_LINE2":"2 48004  53.0476  66.2655 0001878  33.6006 179.1732 15.73122633  3696"},"version":"v1.0","launch":"60428aafc041c16716f73cd7","longitude":-121.20204656278916,"latitude":52.15468914963354,"height_km":355.24024088745864,"velocity_kms":7.702890582273912,"id":"6064dd08b8f62f000657746d"},{"spaceTrack":{"CCSDS_OMM_VERS":"2.0","COMMENT":"GENERATED VIA SPACE-TRACK.ORG API","CREATION_DATE":"2021-07-02T17:51:43","ORIGINATOR":"18 SPCS","OBJECT_NAME":"STARLINK-2263","OBJECT_ID":"2021-024AC","CENTER_NAME":"EARTH","REF_FRAME":"TEME","TIME_SYSTEM":"UTC","MEAN_ELEMENT_THEORY":"SGP4","EPOCH":"2021-07-02T11:02:20.294304","MEAN_MOTION":15.04764576,"ECCENTRICITY":0.0001767,"INCLINATION":53.0367,"RA_OF_ASC_NODE":97.9322,"ARG_OF_PERICENTER":73.0409,"MEAN_ANOMALY":287.0773,"EPHEMERIS_TYPE":0,"CLASSIFICATION_TYPE":"U","NORAD_CAT_ID":48003,"ELEMENT_SET_NO":999,"REV_AT_EPOCH":1658,"BSTAR":-0.000025893,"MEAN_MOTION_DOT":-0.00000646,"MEAN_MOTION_DDOT":0,"SEMIMAJOR_AXIS":6930.365,"PERIOD":95.696,"APOAPSIS":553.455,"PERIAPSIS":551.006,"OBJECT_TYPE":"PAYLOAD","RCS_SIZE":"LARGE","COUNTRY_CODE":"US","LAUNCH_DATE":"2021-03-24","SITE":"AFETR","DECAY_DATE":null,"DECAYED":0,"FILE":3068555,"GP_ID":180167929,"TLE_LINE0":"0 STARLINK-2263","TLE_LINE1":"1 48003U 21024AC  21183.45995711 -.00000646  00000-0 -25893-4 0  9999","TLE_LINE2":"2 48003  53.0367  97.9322 0001767  73.0409 287.0773 15.04764576 16586"},"version":"v1.0","launch":"60428aafc041c16716f73cd7","longitude":-76.88812331000798,"latitude":53.15812171702938,"height_km":557.5943471731971,"velocity_kms":7.589770617324324,"id":"6064dd0868068f00062d1958"}]